{
  "type": "FeatureCollection",
  "features": [
    {
      "type": "Feature",
      "properties": {
        "norad_id": 24946,
        "name": "IRIDIUM 33",
        "group": "iridium-33-debris",
        "lat": 82.34971704696402,
        "lon": -136.7570933694384,
        "alt_km": 770.5791351161888,
        "timestamp": "2025-12-05T09:41:19.516306+00:00",
        "meta_object_name": "IRIDIUM 33",
        "meta_object_id": "1997-051C",
        "meta_epoch": "2025-12-04T16:30:14.912640",
        "meta_mean_motion": 14.3502848,
        "meta_eccentricity": 0.0006229,
        "meta_inclination": 86.3872,
        "meta_ra_of_asc_node": 71.6011,
        "meta_arg_of_pericenter": 231.2861,
        "meta_mean_anomaly": 128.7778,
        "meta_ephemeris_type": 0,
        "meta_classification_type": "U",
        "meta_norad_cat_id": 24946,
        "meta_element_set_no": 999,
        "meta_rev_at_epoch": 47719,
        "meta_bstar": 0.00024305,
        "meta_mean_motion_dot": 7.12e-06,
        "meta_mean_motion_ddot": 0,
        "tle_line1": "1 24946U 97051C   25338.68767260  .00000712  00000+0  24305-3 0  9996",
        "tle_line2": "2 24946  86.3872  71.6011 0006229 231.2861 128.7778 14.35028480477192"
      },
      "geometry": {
        "type": "Point",
        "coordinates": [
          -136.7570933694384,
          82.34971704696402
        ]
      }
    },
    {
      "type": "Feature",
      "properties": {
        "norad_id": 33773,
        "name": "IRIDIUM 33 DEB",
        "group": "iridium-33-debris",
        "lat": -17.395466765900654,
        "lon": -115.17253611376675,
        "alt_km": 745.5802458568614,
        "timestamp": "2025-12-05T09:41:19.516352+00:00",
        "meta_object_name": "IRIDIUM 33 DEB",
        "meta_object_id": "1997-051L",
        "meta_epoch": "2025-12-04T16:08:15.792864",
        "meta_mean_motion": 14.43229682,
        "meta_eccentricity": 0.0011623,
        "meta_inclination": 86.4014,
        "meta_ra_of_asc_node": 64.0075,
        "meta_arg_of_pericenter": 171.2195,
        "meta_mean_anomaly": 188.9211,
        "meta_ephemeris_type": 0,
        "meta_classification_type": "U",
        "meta_norad_cat_id": 33773,
        "meta_element_set_no": 999,
        "meta_rev_at_epoch": 88231,
        "meta_bstar": 0.00065225,
        "meta_mean_motion_dot": 2.214e-05,
        "meta_mean_motion_ddot": 0,
        "tle_line1": "1 33773U 97051L   25338.67240501  .00002214  00000+0  65225-3 0  9992",
        "tle_line2": "2 33773  86.4014  64.0075 0011623 171.2195 188.9211 14.43229682882312"
      },
      "geometry": {
        "type": "Point",
        "coordinates": [
          -115.17253611376675,
          -17.395466765900654
        ]
      }
    },
    {
      "type": "Feature",
      "properties": {
        "norad_id": 33775,
        "name": "IRIDIUM 33 DEB",
        "group": "iridium-33-debris",
        "lat": -32.04966150802171,
        "lon": 50.40371846885719,
        "alt_km": 768.1555038324914,
        "timestamp": "2025-12-05T09:41:19.516369+00:00",
        "meta_object_name": "IRIDIUM 33 DEB",
        "meta_object_id": "1997-051N",
        "meta_epoch": "2025-12-04T16:04:16.698144",
        "meta_mean_motion": 14.41441459,
        "meta_eccentricity": 0.0013354,
        "meta_inclination": 86.3643,
        "meta_ra_of_asc_node": 52.9983,
        "meta_arg_of_pericenter": 180.2166,
        "meta_mean_anomaly": 300.9326,
        "meta_ephemeris_type": 0,
        "meta_classification_type": "U",
        "meta_norad_cat_id": 33775,
        "meta_element_set_no": 999,
        "meta_rev_at_epoch": 88024,
        "meta_bstar": 0.00065635,
        "meta_mean_motion_dot": 2.149e-05,
        "meta_mean_motion_ddot": 0,
        "tle_line1": "1 33775U 97051N   25338.66963771  .00002149  00000+0  65635-3 0  9996",
        "tle_line2": "2 33775  86.3643  52.9983 0013354 180.2166 300.9326 14.41441459880245"
      },
      "geometry": {
        "type": "Point",
        "coordinates": [
          50.40371846885719,
          -32.04966150802171
        ]
      }
    },
    {
      "type": "Feature",
      "properties": {
        "norad_id": 33776,
        "name": "IRIDIUM 33 DEB",
        "group": "iridium-33-debris",
        "lat": -76.57255975590728,
        "lon": 68.58280276846091,
        "alt_km": 768.0807604751344,
        "timestamp": "2025-12-05T09:41:19.516383+00:00",
        "meta_object_name": "IRIDIUM 33 DEB",
        "meta_object_id": "1997-051P",
        "meta_epoch": "2025-12-04T14:03:40.177152",
        "meta_mean_motion": 14.38210253,
        "meta_eccentricity": 0.0013468,
        "meta_inclination": 86.4037,
        "meta_ra_of_asc_node": 84.1997,
        "meta_arg_of_pericenter": 218.542,
        "meta_mean_anomaly": 152.6812,
        "meta_ephemeris_type": 0,
        "meta_classification_type": "U",
        "meta_norad_cat_id": 33776,
        "meta_element_set_no": 999,
        "meta_rev_at_epoch": 87965,
        "meta_bstar": 0.00057275,
        "meta_mean_motion_dot": 1.76e-05,
        "meta_mean_motion_ddot": 0,
        "tle_line1": "1 33776U 97051P   25338.58588168  .00001760  00000+0  57275-3 0  9990",
        "tle_line2": "2 33776  86.4037  84.1997 0013468 218.5420 152.6812 14.38210253879657"
      },
      "geometry": {
        "type": "Point",
        "coordinates": [
          68.58280276846091,
          -76.57255975590728
        ]
      }
    },
    {
      "type": "Feature",
      "properties": {
        "norad_id": 33777,
        "name": "IRIDIUM 33 DEB",
        "group": "iridium-33-debris",
        "lat": -26.95394258062786,
        "lon": 36.549810431500454,
        "alt_km": 711.0694437951906,
        "timestamp": "2025-12-05T09:41:19.516410+00:00",
        "meta_object_name": "IRIDIUM 33 DEB",
        "meta_object_id": "1997-051Q",
        "meta_epoch": "2025-12-04T15:39:47.047104",
        "meta_mean_motion": 14.55518436,
        "meta_eccentricity": 0.000511,
        "meta_inclination": 86.3797,
        "meta_ra_of_asc_node": 38.7212,
        "meta_arg_of_pericenter": 287.0906,
        "meta_mean_anomaly": 72.9742,
        "meta_ephemeris_type": 0,
        "meta_classification_type": "U",
        "meta_norad_cat_id": 33777,
        "meta_element_set_no": 999,
        "meta_rev_at_epoch": 88416,
        "meta_bstar": 0.0022811,
        "meta_mean_motion_dot": 9.958e-05,
        "meta_mean_motion_ddot": 0,
        "tle_line1": "1 33777U 97051Q   25338.65262786  .00009958  00000+0  22811-2 0  9998",
        "tle_line2": "2 33777  86.3797  38.7212 0005110 287.0906  72.9742 14.55518436884161"
      },
      "geometry": {
        "type": "Point",
        "coordinates": [
          36.549810431500454,
          -26.95394258062786
        ]
      }
    },
    {
      "type": "Feature",
      "properties": {
        "norad_id": 33850,
        "name": "IRIDIUM 33 DEB",
        "group": "iridium-33-debris",
        "lat": -68.71302004917221,
        "lon": 23.885780883667415,
        "alt_km": 761.2492512027166,
        "timestamp": "2025-12-05T09:41:19.516426+00:00",
        "meta_object_name": "IRIDIUM 33 DEB",
        "meta_object_id": "1997-051T",
        "meta_epoch": "2025-12-04T16:15:08.415072",
        "meta_mean_motion": 14.42120572,
        "meta_eccentricity": 0.001141,
        "meta_inclination": 86.3427,
        "meta_ra_of_asc_node": 33.6464,
        "meta_arg_of_pericenter": 186.1816,
        "meta_mean_anomaly": 295.3072,
        "meta_ephemeris_type": 0,
        "meta_classification_type": "U",
        "meta_norad_cat_id": 33850,
        "meta_element_set_no": 999,
        "meta_rev_at_epoch": 88036,
        "meta_bstar": 0.00086956,
        "meta_mean_motion_dot": 2.88e-05,
        "meta_mean_motion_ddot": 0,
        "tle_line1": "1 33850U 97051T   25338.67718073  .00002880  00000+0  86956-3 0  9995",
        "tle_line2": "2 33850  86.3427  33.6464 0011410 186.1816 295.3072 14.42120572880366"
      },
      "geometry": {
        "type": "Point",
        "coordinates": [
          23.885780883667415,
          -68.71302004917221
        ]
      }
    },
    {
      "type": "Feature",
      "properties": {
        "norad_id": 33853,
        "name": "IRIDIUM 33 DEB",
        "group": "iridium-33-debris",
        "lat": 12.724283265316393,
        "lon": -6.0652619949956295,
        "alt_km": 957.8734246736494,
        "timestamp": "2025-12-05T09:41:19.516439+00:00",
        "meta_object_name": "IRIDIUM 33 DEB",
        "meta_object_id": "1997-051W",
        "meta_epoch": "2025-12-04T01:16:34.217184",
        "meta_mean_motion": 13.98972091,
        "meta_eccentricity": 0.02067962,
        "meta_inclination": 86.0003,
        "meta_ra_of_asc_node": 353.6212,
        "meta_arg_of_pericenter": 262.6777,
        "meta_mean_anomaly": 150.4676,
        "meta_ephemeris_type": 0,
        "meta_classification_type": "U",
        "meta_norad_cat_id": 33853,
        "meta_element_set_no": 999,
        "meta_rev_at_epoch": 85224,
        "meta_bstar": 0.0041696417,
        "meta_mean_motion_dot": 7.249e-05,
        "meta_mean_motion_ddot": 0,
        "tle_line1": "1 33853U 97051W   25338.05317381  .00007249  00000+0  41696-2 0  9992",
        "tle_line2": "2 33853  86.0003 353.6212 0206796 262.6777 150.4676 13.98972091852249"
      },
      "geometry": {
        "type": "Point",
        "coordinates": [
          -6.0652619949956295,
          12.724283265316393
        ]
      }
    }
  ]
}